[
  {
    "OBJECT_NAME": "STARLINK-34169",
    "OBJECT_ID": "25101F",
    "EPOCH": "2025-11-11T06:01:58.789632",
    "MEAN_MOTION": 15.2761011,
    "ECCENTRICITY": 0.0001936,
    "INCLINATION": 43.0052,
    "RA_OF_ASC_NODE": 306.6735,
    "ARG_OF_PERICENTER": 270.7822,
    "MEAN_ANOMALY": 89.2808,
    "EPHEMERIS_TYPE": 0,
    "CLASSIFICATION_TYPE": "U",
    "NORAD_CAT_ID": 63999,
    "ELEMENT_SET_NO": 999,
    "REV_AT_EPOCH": 2894,
    "BSTAR": 0.0015547,
    "MEAN_MOTION_DOT": 0.00042809,
    "MEAN_MOTION_DDOT": 0.0,
    "TLE_LINE1": "1 63999U 25101F   25315.25137488  .00042809  00000+0  15547-2 0  9995",
    "TLE_LINE2": "2 63999  43.0052 306.6735 0001936 270.7822  89.2808 15.27610110 28941",
    "COMMENT": "Grouped by shell and plane from TLE"
  },
  {
    "OBJECT_NAME": "STARLINK-34152",
    "OBJECT_ID": "25101G",
    "EPOCH": "2025-11-11T06:11:13.831008",
    "MEAN_MOTION": 15.27615355,
    "ECCENTRICITY": 0.0001067,
    "INCLINATION": 43.0031,
    "RA_OF_ASC_NODE": 306.7193,
    "ARG_OF_PERICENTER": 252.832,
    "MEAN_ANOMALY": 107.2415,
    "EPHEMERIS_TYPE": 0,
    "CLASSIFICATION_TYPE": "U",
    "NORAD_CAT_ID": 64000,
    "ELEMENT_SET_NO": 999,
    "REV_AT_EPOCH": 2894,
    "BSTAR": 0.0014382000000000002,
    "MEAN_MOTION_DOT": 0.00039569,
    "MEAN_MOTION_DDOT": 0.0,
    "TLE_LINE1": "1 64000U 25101G   25315.25779897  .00039569  00000+0  14382-2 0  9990",
    "TLE_LINE2": "2 64000  43.0031 306.7193 0001067 252.8320 107.2415 15.27615355 28941",
    "COMMENT": "Grouped by shell and plane from TLE"
  },
  {
    "OBJECT_NAME": "STARLINK-33927",
    "OBJECT_ID": "25101H",
    "EPOCH": "2025-11-11T00:51:58.230432",
    "MEAN_MOTION": 15.2758995,
    "ECCENTRICITY": 0.0001415,
    "INCLINATION": 43.0045,
    "RA_OF_ASC_NODE": 308.4968,
    "ARG_OF_PERICENTER": 259.1198,
    "MEAN_ANOMALY": 100.9495,
    "EPHEMERIS_TYPE": 0,
    "CLASSIFICATION_TYPE": "U",
    "NORAD_CAT_ID": 64001,
    "ELEMENT_SET_NO": 999,
    "REV_AT_EPOCH": 2890,
    "BSTAR": 0.0012562,
    "MEAN_MOTION_DOT": 0.00034478,
    "MEAN_MOTION_DDOT": 0.0,
    "TLE_LINE1": "1 64001U 25101H   25315.03609063  .00034478  00000+0  12562-2 0  9996",
    "TLE_LINE2": "2 64001  43.0045 308.4968 0001415 259.1198 100.9495 15.27589950 28901",
    "COMMENT": "Grouped by shell and plane from TLE"
  },
  {
    "OBJECT_NAME": "STARLINK-33898",
    "OBJECT_ID": "25101J",
    "EPOCH": "2025-11-11T06:57:29.262528",
    "MEAN_MOTION": 15.27611929,
    "ECCENTRICITY": 8.66e-05,
    "INCLINATION": 43.0033,
    "RA_OF_ASC_NODE": 306.9601,
    "ARG_OF_PERICENTER": 251.1,
    "MEAN_ANOMALY": 108.9757,
    "EPHEMERIS_TYPE": 0,
    "CLASSIFICATION_TYPE": "U",
    "NORAD_CAT_ID": 64002,
    "ELEMENT_SET_NO": 999,
    "REV_AT_EPOCH": 2894,
    "BSTAR": 0.001328,
    "MEAN_MOTION_DOT": 0.00036497,
    "MEAN_MOTION_DDOT": 0.0,
    "TLE_LINE1": "1 64002U 25101J   25315.28992202  .00036497  00000+0  13280-2 0  9995",
    "TLE_LINE2": "2 64002  43.0033 306.9601 0000866 251.1000 108.9757 15.27611929 28944",
    "COMMENT": "Grouped by shell and plane from TLE"
  },
  {
    "OBJECT_NAME": "STARLINK-33928",
    "OBJECT_ID": "25101K",
    "EPOCH": "2025-11-11T00:57:18.526464",
    "MEAN_MOTION": 15.27591622,
    "ECCENTRICITY": 0.0001171,
    "INCLINATION": 43.0034,
    "RA_OF_ASC_NODE": 307.6627,
    "ARG_OF_PERICENTER": 257.2577,
    "MEAN_ANOMALY": 102.8144,
    "EPHEMERIS_TYPE": 0,
    "CLASSIFICATION_TYPE": "U",
    "NORAD_CAT_ID": 64003,
    "ELEMENT_SET_NO": 999,
    "REV_AT_EPOCH": 2891,
    "BSTAR": 0.0013889000000000002,
    "MEAN_MOTION_DOT": 0.00038168,
    "MEAN_MOTION_DDOT": 0.0,
    "TLE_LINE1": "1 64003U 25101K   25315.03979776  .00038168  00000+0  13889-2 0  9992",
    "TLE_LINE2": "2 64003  43.0034 307.6627 0001171 257.2577 102.8144 15.27591622 28915",
    "COMMENT": "Grouped by shell and plane from TLE"
  },
  {
    "OBJECT_NAME": "STARLINK-33758",
    "OBJECT_ID": "25101L",
    "EPOCH": "2025-11-11T06:31:34.885920",
    "MEAN_MOTION": 15.27617464,
    "ECCENTRICITY": 0.0001053,
    "INCLINATION": 43.002,
    "RA_OF_ASC_NODE": 306.823,
    "ARG_OF_PERICENTER": 267.6928,
    "MEAN_ANOMALY": 92.3803,
    "EPHEMERIS_TYPE": 0,
    "CLASSIFICATION_TYPE": "U",
    "NORAD_CAT_ID": 64004,
    "ELEMENT_SET_NO": 999,
    "REV_AT_EPOCH": 2894,
    "BSTAR": 0.001278,
    "MEAN_MOTION_DOT": 0.00035115,
    "MEAN_MOTION_DDOT": 0.0,
    "TLE_LINE1": "1 64004U 25101L   25315.27193155  .00035115  00000+0  12780-2 0  9996",
    "TLE_LINE2": "2 64004  43.0020 306.8230 0001053 267.6928  92.3803 15.27617464 28947",
    "COMMENT": "Grouped by shell and plane from TLE"
  },
  {
    "OBJECT_NAME": "STARLINK-33936",
    "OBJECT_ID": "25101M",
    "EPOCH": "2025-11-11T01:25:03.842400",
    "MEAN_MOTION": 15.27608012,
    "ECCENTRICITY": 0.0001023,
    "INCLINATION": 42.9995,
    "RA_OF_ASC_NODE": 307.8037,
    "ARG_OF_PERICENTER": 200.8139,
    "MEAN_ANOMALY": 159.2671,
    "EPHEMERIS_TYPE": 0,
    "CLASSIFICATION_TYPE": "U",
    "NORAD_CAT_ID": 64005,
    "ELEMENT_SET_NO": 999,
    "REV_AT_EPOCH": 2891,
    "BSTAR": 0.001177,
    "MEAN_MOTION_DOT": 0.00032297,
    "MEAN_MOTION_DDOT": 0.0,
    "TLE_LINE1": "1 64005U 25101M   25315.05907225  .00032297  00000+0  11770-2 0  9990",
    "TLE_LINE2": "2 64005  42.9995 307.8037 0001023 200.8139 159.2671 15.27608012 28915",
    "COMMENT": "Grouped by shell and plane from TLE"
  },
  {
    "OBJECT_NAME": "STARLINK-33931",
    "OBJECT_ID": "25101N",
    "EPOCH": "2025-11-11T00:59:10.478400",
    "MEAN_MOTION": 15.27600844,
    "ECCENTRICITY": 0.0003941,
    "INCLINATION": 43.0091,
    "RA_OF_ASC_NODE": 307.6802,
    "ARG_OF_PERICENTER": 152.6767,
    "MEAN_ANOMALY": 207.4292,
    "EPHEMERIS_TYPE": 0,
    "CLASSIFICATION_TYPE": "U",
    "NORAD_CAT_ID": 64006,
    "ELEMENT_SET_NO": 999,
    "REV_AT_EPOCH": 2893,
    "BSTAR": 0.0016233,
    "MEAN_MOTION_DOT": 0.00044714,
    "MEAN_MOTION_DDOT": 0.0,
    "TLE_LINE1": "1 64006U 25101N   25315.04109350  .00044714  00000+0  16233-2 0  9999",
    "TLE_LINE2": "2 64006  43.0091 307.6802 0003941 152.6767 207.4292 15.27600844 28937",
    "COMMENT": "Grouped by shell and plane from TLE"
  },
  {
    "OBJECT_NAME": "STARLINK-33759",
    "OBJECT_ID": "25101P",
    "EPOCH": "2025-11-11T05:56:25.080000",
    "MEAN_MOTION": 15.27638523,
    "ECCENTRICITY": 0.000133,
    "INCLINATION": 43.0056,
    "RA_OF_ASC_NODE": 306.6361,
    "ARG_OF_PERICENTER": 239.5142,
    "MEAN_ANOMALY": 120.5579,
    "EPHEMERIS_TYPE": 0,
    "CLASSIFICATION_TYPE": "U",
    "NORAD_CAT_ID": 64007,
    "ELEMENT_SET_NO": 999,
    "REV_AT_EPOCH": 2894,
    "BSTAR": 0.0016034,
    "MEAN_MOTION_DOT": 0.00044202,
    "MEAN_MOTION_DDOT": 0.0,
    "TLE_LINE1": "1 64007U 25101P   25315.24751250  .00044202  00000+0  16034-2 0  9995",
    "TLE_LINE2": "2 64007  43.0056 306.6361 0001330 239.5142 120.5579 15.27638523 28949",
    "COMMENT": "Grouped by shell and plane from TLE"
  },
  {
    "OBJECT_NAME": "STARLINK-34163",
    "OBJECT_ID": "25101Q",
    "EPOCH": "2025-11-11T06:38:58.992288",
    "MEAN_MOTION": 15.27613569,
    "ECCENTRICITY": 0.000115,
    "INCLINATION": 43.0016,
    "RA_OF_ASC_NODE": 306.8604,
    "ARG_OF_PERICENTER": 261.5728,
    "MEAN_ANOMALY": 98.4993,
    "EPHEMERIS_TYPE": 0,
    "CLASSIFICATION_TYPE": "U",
    "NORAD_CAT_ID": 64008,
    "ELEMENT_SET_NO": 999,
    "REV_AT_EPOCH": 2894,
    "BSTAR": 0.0014366000000000001,
    "MEAN_MOTION_DOT": 0.00039523,
    "MEAN_MOTION_DDOT": 0.0,
    "TLE_LINE1": "1 64008U 25101Q   25315.27707167  .00039523  00000+0  14366-2 0  9993",
    "TLE_LINE2": "2 64008  43.0016 306.8604 0001150 261.5728  98.4993 15.27613569 28949",
    "COMMENT": "Grouped by shell and plane from TLE"
  },
  {
    "OBJECT_NAME": "STARLINK-34077",
    "OBJECT_ID": "25101R",
    "EPOCH": "2025-11-11T05:54:34.457760",
    "MEAN_MOTION": 15.27618383,
    "ECCENTRICITY": 0.0001998,
    "INCLINATION": 43.0021,
    "RA_OF_ASC_NODE": 306.6292,
    "ARG_OF_PERICENTER": 280.8978,
    "MEAN_ANOMALY": 79.1649,
    "EPHEMERIS_TYPE": 0,
    "CLASSIFICATION_TYPE": "U",
    "NORAD_CAT_ID": 64009,
    "ELEMENT_SET_NO": 999,
    "REV_AT_EPOCH": 2894,
    "BSTAR": 0.0013501,
    "MEAN_MOTION_DOT": 0.00037122,
    "MEAN_MOTION_DDOT": 0.0,
    "TLE_LINE1": "1 64009U 25101R   25315.24623215  .00037122  00000+0  13501-2 0  9995",
    "TLE_LINE2": "2 64009  43.0021 306.6292 0001998 280.8978  79.1649 15.27618383 28941",
    "COMMENT": "Grouped by shell and plane from TLE"
  },
  {
    "OBJECT_NAME": "STARLINK-34193",
    "OBJECT_ID": "25101T",
    "EPOCH": "2025-11-11T00:31:37.015680",
    "MEAN_MOTION": 15.27616606,
    "ECCENTRICITY": 3.97e-05,
    "INCLINATION": 42.9993,
    "RA_OF_ASC_NODE": 308.3852,
    "ARG_OF_PERICENTER": 139.5351,
    "MEAN_ANOMALY": 220.553,
    "EPHEMERIS_TYPE": 0,
    "CLASSIFICATION_TYPE": "U",
    "NORAD_CAT_ID": 64011,
    "ELEMENT_SET_NO": 999,
    "REV_AT_EPOCH": 2890,
    "BSTAR": 0.0018391,
    "MEAN_MOTION_DOT": 0.00050751,
    "MEAN_MOTION_DDOT": 0.0,
    "TLE_LINE1": "1 64011U 25101T   25315.02195620  .00050751  00000+0  18391-2 0  9993",
    "TLE_LINE2": "2 64011  42.9993 308.3852 0000397 139.5351 220.5530 15.27616606 28901",
    "COMMENT": "Grouped by shell and plane from TLE"
  },
  {
    "OBJECT_NAME": "STARLINK-34078",
    "OBJECT_ID": "25101U",
    "EPOCH": "2025-11-11T05:50:52.410624",
    "MEAN_MOTION": 15.27623398,
    "ECCENTRICITY": 0.0001668,
    "INCLINATION": 43.004,
    "RA_OF_ASC_NODE": 306.6083,
    "ARG_OF_PERICENTER": 278.9404,
    "MEAN_ANOMALY": 81.1259,
    "EPHEMERIS_TYPE": 0,
    "CLASSIFICATION_TYPE": "U",
    "NORAD_CAT_ID": 64012,
    "ELEMENT_SET_NO": 999,
    "REV_AT_EPOCH": 2894,
    "BSTAR": 0.0017516,
    "MEAN_MOTION_DOT": 0.00048319,
    "MEAN_MOTION_DDOT": 0.0,
    "TLE_LINE1": "1 64012U 25101U   25315.24366216  .00048319  00000+0  17516-2 0  9994",
    "TLE_LINE2": "2 64012  43.0040 306.6083 0001668 278.9404  81.1259 15.27623398 28942",
    "COMMENT": "Grouped by shell and plane from TLE"
  }
]